GLOBALSTAR M068 [-]     
1 32266U 07048D   23275.15065209 -.00000091  00000+0  69132-4 0  9990
2 32266  51.9901  44.4310 0000994 154.1815  17.1512 12.62767001739007
GLOBALSTAR M079 [+]     
1 37188U 10054A   23274.67687029 -.00000100  00000+0  23722-4 0  9991
2 37188  52.0023 240.8967 0000585  50.5344 120.2328 12.62268189597583
GLOBALSTAR M074 [+]     
1 37189U 10054B   23275.33531715 -.00000099  00000+0  29274-4 0  9991
2 37189  52.0000 238.3111 0000505  71.2212  93.3440 12.62270157598346
GLOBALSTAR M076 [+]     
1 37190U 10054C   23274.93341778 -.00000103  00000+0  17775-5 0  9996
2 37190  52.0016 239.6485 0001065  67.3262 310.3313 12.62261525597941
GLOBALSTAR M077 [+]     
1 37191U 10054D   23274.93320630 -.00000076  00000+0  15646-3 0  9993
2 37191  52.0063 196.3274 0000649  74.5711   0.7259 12.62264153598316
GLOBALSTAR M075 [+]     
1 37192U 10054E   23275.02852863 -.00000098  00000+0  34926-4 0  9990
2 37192  51.9937 281.9657 0000459  54.3682 335.0017 12.62261836597559
GLOBALSTAR M073 [+]     
1 37193U 10054F   23275.10448537 -.00000071  00000+0  18224-3 0  9992
2 37193  52.0051 195.0753 0000670  65.8706 309.1262 12.62267829599071
GLOBALSTAR M083 [+]     
1 37739U 11033A   23274.95874390 -.00000069  00000+0  19535-3 0  9991
2 37739  51.9843 145.1023 0000557  67.6558 306.0389 12.62269617568023
GLOBALSTAR M088 [+]     
1 37740U 11033B   23274.71508135 -.00000113  00000+0 -53683-4 0  9992
2 37740  51.9744  51.8591 0000558  77.7684  27.5169 12.62265865563534
GLOBALSTAR M091 [+]     
1 37741U 11033C   23274.54983519 -.00000094  00000+0  51929-4 0  9995
2 37741  52.0023  14.8023 0000427  75.5697 297.7576 12.62266555564307
GLOBALSTAR M085 [+]     
1 37742U 11033D   23274.88809941 -.00000081  00000+0  12431-3 0  9999
2 37742  51.9882 325.3660 0000271  68.1164 103.9327 12.62263228564856
GLOBALSTAR M081 [+]     
1 37743U 11033E   23275.43373263 -.00000076  00000+0  15540-3 0  9993
2 37743  51.9973 326.1067 0000472  55.7134 316.8067 12.62264831565454
GLOBALSTAR M089 [+]     
1 37744U 11033F   23274.79798803 -.00000092  00000+0  64110-4 0  9999
2 37744  51.9920 282.3876 0000653  88.3437  93.4331 12.62267576565830
GLOBALSTAR M084 [+]     
1 38040U 11080A   23275.36367330 -.00000071  00000+0  18477-3 0  9993
2 38040  51.9994 147.6222 0000989  85.4718  87.4142 12.62266489544169
GLOBALSTAR M080 [+]     
1 38041U 11080B   23275.01263756 -.00000062  00000+0  23053-3 0  9999
2 38041  52.0047 150.0777 0001184  78.4158  58.8806 12.62264976544104
GLOBALSTAR M082 [+]     
1 38042U 11080C   23275.03349244 -.00000094  00000+0  53564-4 0  9995
2 38042  52.0059 105.3923 0000220  88.3239  84.3839 12.62271412544848
GLOBALSTAR M092 [+]     
1 38043U 11080D   23275.48169906 -.00000073  00000+0  17050-3 0  9996
2 38043  52.0075 194.3713 0000812  93.3369  77.4235 12.62272408543397
GLOBALSTAR M090 [+]     
1 38044U 11080E   23274.72282233 -.00000102  00000+0  97071-5 0  9998
2 38044  51.9870 100.9508 0000583  74.1377   6.4849 12.62278053544751
GLOBALSTAR M086 [+]     
1 38045U 11080F   23274.81409828 -.00000100  00000+0  21980-4 0  9993
2 38045  51.9880 101.1749 0001454  46.7205 329.1444 12.62262942544718
GLOBALSTAR M097 [+]     
1 39072U 13005A   23274.67896709 -.00000100  00000+0  22406-4 0  9999
2 39072  52.0072  15.5003 0000426  72.7702 287.3211 12.62270681491946
GLOBALSTAR M093 [+]     
1 39073U 13005B   23274.65240186 -.00000089  00000+0  84064-4 0  9994
2 39073  51.9836   9.8839 0000439  42.6758 317.4143 12.62266937491899
GLOBALSTAR M094 [+]     
1 39074U 13005C   23275.28593188 -.00000098  00000+0  32743-4 0  9995
2 39074  51.9948 281.7152 0000411  53.5559 306.5345 12.62268126493609
GLOBALSTAR M096 [+]     
1 39075U 13005D   23275.45737729 -.00000081  00000+0  12911-3 0  9992
2 39075  52.0090 329.2199 0000349  55.0018 305.0881 12.62264341492878
GLOBALSTAR M078 [+]     
1 39076U 13005E   23274.71807944 -.00000112  00000+0 -44200-4 0  9991
2 39076  51.9879  56.8227 0000616 192.4674 167.6178 12.62261537491052
GLOBALSTAR M095 [+]     
1 39077U 13005F   23275.37836507 -.00000119  00000+0 -84482-4 0  9995
2 39077  51.9809  52.3212 0000065 114.9204 245.1669 12.62269023491355
GLOBALSTAR M087 [+]     
1 52888U 22064A   23275.49116233 -.00000096  00000+0  62334-4 0  9990
2 52888  51.9773  30.4255 0010069  70.3312 289.8674 13.37553583 62900
